{
  "type": "FeatureCollection",
  "name": "Padma_River_Estuary_Study_Site",
  "crs": {
    "type": "name",
    "properties": {
      "name": "urn:ogc:def:crs:OGC:1.3:CRS84"
    }
  },
  "features": [
    {
      "type": "Feature",
      "properties": {
        "layer": "AOI",
        "name": "Padma River Area of Interest",
        "description": "Bounding polygon for Google Earth Engine satellite download"
      },
      "geometry": {
        "type": "Polygon",
        "coordinates": [
          [
            [90.30, 23.50],
            [90.45, 23.50],
            [90.45, 23.65],
            [90.30, 23.65],
            [90.30, 23.50]
          ]
        ]
      }
    },
    {
      "type": "Feature",
      "properties": {
        "layer": "Virtual_Station",
        "name": "Station_1_Upstream",
        "buffer_pixels": 2
      },
      "geometry": {
        "type": "Point",
        "coordinates": [90.33, 23.62]
      }
    },
    {
      "type": "Feature",
      "properties": {
        "layer": "Virtual_Station",
        "name": "Station_2_Confluence",
        "buffer_pixels": 2
      },
      "geometry": {
        "type": "Point",
        "coordinates": [90.36, 23.57]
      }
    },
    {
      "type": "Feature",
      "properties": {
        "layer": "Virtual_Station",
        "name": "Station_3_Estuary_Plume",
        "buffer_pixels": 2
      },
      "geometry": {
        "type": "Point",
        "coordinates": [90.40, 23.52]
      }
    },
    {
      "type": "Feature",
      "properties": {
        "layer": "River_Centerline",
        "name": "Padma_Longitudinal_Centerline"
      },
      "geometry": {
        "type": "LineString",
        "coordinates": [
          [90.325, 23.635],
          [90.345, 23.600],
          [90.365, 23.565],
          [90.395, 23.530],
          [90.420, 23.505]
        ]
      }
    }
  ]
}
