{
  "type": "FeatureCollection",
  "features": [
    {
      "type": "Feature",
      "properties": {},
      "geometry": {
        "type": "Polygon",
        "coordinates": [
          [
            [
              91.8682346,
              22.396518
            ],
            [
              91.8935402,
              22.3769924
            ],
            [
              91.9053919,
              22.4026805
            ],
            [
              91.9415581,
              22.4176486
            ],
            [
              91.9341928,
              22.4323188
            ],
            [
              91.9040225,
              22.4273743
            ],
            [
              91.8682346,
              22.396518
            ]
          ]
        ]
      }
    }
  ]
}